OBJECT_NAME,OBJECT_ID,EPOCH,MEAN_MOTION,ECCENTRICITY,INCLINATION,RA_OF_ASC_NODE,ARG_OF_PERICENTER,MEAN_ANOMALY,EPHEMERIS_TYPE,CLASSIFICATION_TYPE,NORAD_CAT_ID,ELEMENT_SET_NO,REV_AT_EPOCH,BSTAR,MEAN_MOTION_DOT,MEAN_MOTION_DDOT
GALAXY 37 (G-37),2023-112A,2026-07-16T04:09:46.029888,1.00271297,.00018232,0.0184,49.9091,68.6969,110.8601,0,U,57493,999,1083,0,0,0
LUDI TANCE-4 01A,2023-120A,2026-07-16T14:58:04.963584,1.00275602,.0001538,15.0854,193.2374,13.4913,41.7726,0,U,57624,999,1084,0,-.189E-5,0
TJS-10,2023-169A,2026-07-16T18:37:21.582336,1.00273410,.0004084,2.6188,80.1357,114.6578,111.5406,0,U,58204,999,983,0,-.261E-5,0
ZHONGXING-6E,2023-172A,2026-07-14T16:55:11.377920,1.00272476,.0002698,0.0192,86.2131,23.7417,191.9164,0,U,58253,999,993,0,-.37E-5,0
YAOGAN-41,2023-197A,2026-07-16T12:11:46.255200,1.00276306,.00139033,3.0762,313.6099,201.0374,85.7267,0,U,58582,999,961,0,-.37E-5,0
OVZON-3,2024-003A,2026-07-16T10:11:04.049088,1.00270477,.00001692,0.0150,119.5564,198.2107,188.9354,0,U,58698,999,774,0,.41E-6,0
INSAT-3DS,2024-033A,2026-07-16T13:41:38.701248,1.00270836,.00011128,0.0872,264.5015,224.2585,93.1167,0,U,58990,999,4736,0,-.166E-5,0
MERAH PUTIH 2,2024-035A,2026-07-14T08:16:38.659296,1.00270544,.00010623,0.0215,82.0854,34.4456,52.7926,0,U,58995,999,886,0,-.365E-5,0
TJS-11,2024-037A,2026-07-16T03:36:15.692832,1.00273247,.0001838,4.1617,327.4460,150.5911,342.5812,0,U,59020,999,887,0,-.371E-5,0
HULIANWAN GAOGUI-01 (HG-01),2024-040A,2026-07-16T13:28:54.106176,1.00275538,.00017324,0.0742,332.6369,63.3003,134.2990,0,U,59069,999,762,0,.145E-5,0
EUTELSAT 36D,2024-059A,2026-07-16T13:29:31.545888,1.00269077,.00000755,0.0248,67.1953,227.7935,237.6729,0,U,59346,999,844,0,0,0
PAKSAT-MM1,2024-104A,2026-07-13T13:38:44.797056,1.00269751,.0001963,0.0311,143.3666,313.2921,77.6097,0,U,59915,999,779,0,.15E-5,0
ASTRA 1P (SES-24),2024-115A,2026-07-13T08:25:18.669792,1.00281209,.00014971,0.0666,329.5187,236.9138,230.3347,0,U,60086,999,746,0,.118E-5,0
GOES 19,2024-119A,2026-07-16T12:57:49.586400,1.00271185,.00003925,0.0179,112.0632,92.0452,209.5199,0,U,60133,999,725,0,-.259E-5,0
ZHONGXING-3A,2024-122A,2026-07-15T18:59:06.067680,1.00270068,.0001717,0.0284,118.0048,49.1090,152.8803,0,U,60179,999,759,0,-.324E-5,0
TURKSAT 6A,2024-127A,2026-07-16T11:48:38.731680,1.00270204,.00029575,0.0180,197.4119,330.3822,345.6643,0,U,60233,999,731,0,0,0
HULIANWAN GAOGUI-02 (HG-02),2024-135A,2026-07-16T17:28:13.300608,1.00274258,.0006097,0.0471,356.6014,13.6909,339.3468,0,U,60327,999,779,0,-.184E-5,0
ZHONGXING-4A,2024-151A,2026-07-15T12:43:07.967712,1.00267142,.0000406,1.2426,270.4906,296.2264,35.6107,0,U,60606,999,703,0,-.372E-5,0
HULIANWAN GAOGUI-03 (HG-03),2024-181A,2026-07-15T19:50:46.115232,1.00270412,.00010471,0.0510,359.2926,93.7712,61.1711,0,U,61503,999,711,0,-.251E-5,0
DSN-3 (KIRAMEKI-3),2024-198A,2026-07-16T14:07:38.902080,1.00271492,.00008775,0.0181,46.4450,91.9377,152.0105,0,U,61733,999,621,0,-.261E-5,0
KOREASAT 6A,2024-206A,2026-07-16T13:52:25.273056,1.00269474,.00007662,0.0174,100.4153,355.0810,163.0148,0,U,61910,999,613,0,-.372E-5,0
OPTUS-X (ADS-01),2024-212A,2026-07-15T04:50:38.802336,1.00270006,.00023861,0.0135,63.8448,90.1044,8.1442,0,U,62006,999,604,0,-.153E-5,0
GSAT-N2 (GSAT-20),2024-214A,2026-07-16T14:51:38.581056,1.00271406,.00026512,0.0702,261.7893,145.2463,178.2498,0,U,62028,999,619,0,-.3E-6,0
SXM-9,2024-234A,2026-07-16T07:20:05.300160,1.00269438,.00048473,0.0159,347.6122,329.2208,2.1491,0,U,62259,999,586,0,-.215E-5,0
TJS-12,2024-246A,2026-07-16T14:25:38.733600,1.00268721,.00018155,0.6084,302.2719,98.4305,256.6486,0,U,62374,999,585,0,-.242E-5,0
NUVIEW ALPHA,2024-252B,2026-07-15T06:07:51.084768,1.00270943,.0000983,0.0436,27.4031,54.2618,220.2947,0,U,62455,999,410,0,-.225E-5,0
AGILA,2024-252C,2026-07-15T14:34:38.602272,1.00270462,.0001181,0.0493,128.1618,351.5480,184.5583,0,U,62456,999,544,0,-.192E-5,0
NUVIEW BRAVO,2024-252D,2026-07-15T06:07:51.084768,1.00270612,.00015028,0.0698,162.7343,343.8112,155.4099,0,U,62457,999,407,0,-.224E-5,0
THURAYA-4,2025-001A,2026-07-16T13:31:53.819040,1.00273201,.0000189,0.0235,74.4084,180.7729,286.4959,0,U,62483,999,447,0,.129E-5,0
SHIJIAN-25 (SJ-25),2025-002A,2026-07-16T18:37:36.444000,1.00261568,.0052123,5.1818,60.9762,175.5524,104.5543,0,U,62485,999,565,0,-.364E-5,0
TJS-14,2025-017A,2026-07-16T13:24:32.024736,1.00267670,.0002028,0.7179,297.8601,308.6850,267.3814,0,U,62804,999,556,0,.105E-5,0
SPAINSAT NG I,2025-021A,2026-07-16T13:27:31.737600,1.00270782,.00000807,0.0184,36.2533,261.1430,227.8500,0,U,62852,999,428,0,.141E-5,0
